NUSHSAT1                
1 63211U 25052B   26068.64700493  .00023034  00000+0  74857-3 0  9997
2 63211  97.4095 325.7239 0005501  84.7512 275.4357 15.31903202 54882
STARLINK-35335          
1 66180U 25243D   26068.77030158  .00033589  00000+0  11410-2 0  9996
2 66180  53.1580 245.0526 0000954  68.2422 291.8681 15.30202745 20669
